start=new Date('2023-05-02T00:00:00.000Z').valueOf();
sats=[{"COUNTRY_CODE":"US","MEAN_MOTION_DDOT":"0.0000000000000","REF_FRAME":"TEME","MEAN_MOTION":"15.06400367","DECAY_DATE":null,"RCS_SIZE":"LARGE","ARG_OF_PERICENTER":"82.8479","BSTAR":"0.00005743200000","REV_AT_EPOCH":"10668","LAUNCH_DATE":"2021-05-26","SITE":"AFETR","TIME_SYSTEM":"UTC","ELEMENT_SET_NO":"999","TLE_LINE2":"2 48663  53.0532 112.7063 0001784  82.8479 277.2713 15.06400367106687","MEAN_ELEMENT_THEORY":"SGP4","OBJECT_NAME":"STARLINK-2667","RA_OF_ASC_NODE":"112.7063","PERIOD":"95.592","TLE_LINE1":"1 48663U 21044AB  23121.93936499  .00000574  00000-0  57432-4 0  9990","SEMIMAJOR_AXIS":"6925.347","FILE":"3898518","OBJECT_ID":"2021-044AB","MEAN_MOTION_DOT":"0.00000574","INCLINATION":"53.0532","EPHEMERIS_TYPE":"0","APOAPSIS":"548.448","EPOCH":"2023-05-01T22:32:41.135136","OBJECT_TYPE":"PAYLOAD","MEAN_ANOMALY":"277.2713","NORAD_CAT_ID":"48663","PERIAPSIS":"545.977","GP_ID":"231052129","ECCENTRICITY":"0.00017840","CENTER_NAME":"EARTH","CLASSIFICATION_TYPE":"U"},{"TLE_LINE1":"1 48664U 21044AC  23121.47124691  .00007061  00000-0  49224-3 0  9990","PERIOD":"95.591","RA_OF_ASC_NODE":"114.8043","EPHEMERIS_TYPE":"0","INCLINATION":"53.0525","FILE":"3898048","OBJECT_ID":"2021-044AC","SEMIMAJOR_AXIS":"6925.300","MEAN_MOTION_DOT":"0.00007061","OBJECT_TYPE":"PAYLOAD","NORAD_CAT_ID":"48664","MEAN_ANOMALY":"278.7167","PERIAPSIS":"546.114","EPOCH":"2023-05-01T11:18:35.733024","APOAPSIS":"548.216","CLASSIFICATION_TYPE":"U","CENTER_NAME":"EARTH","GP_ID":"230992981","ECCENTRICITY":"0.00015180","REF_FRAME":"TEME","MEAN_MOTION":"15.06415772","MEAN_MOTION_DDOT":"0.0000000000000","COUNTRY_CODE":"US","REV_AT_EPOCH":"10751","DECAY_DATE":null,"BSTAR":"0.00049224000000","RCS_SIZE":"LARGE","ARG_OF_PERICENTER":"81.3994","TLE_LINE2":"2 48664  53.0525 114.8043 0001518  81.3994 278.7167 15.06415772107510","ELEMENT_SET_NO":"999","TIME_SYSTEM":"UTC","SITE":"AFETR","LAUNCH_DATE":"2021-05-26","MEAN_ELEMENT_THEORY":"SGP4","OBJECT_NAME":"STARLINK-2709"},{"CLASSIFICATION_TYPE":"U","CENTER_NAME":"EARTH","ECCENTRICITY":"0.00012630","GP_ID":"231019569","PERIAPSIS":"546.316","NORAD_CAT_ID":"48665","OBJECT_TYPE":"PAYLOAD","MEAN_ANOMALY":"266.6241","EPOCH":"2023-05-01T10:02:55.645440","APOAPSIS":"548.065","EPHEMERIS_TYPE":"0","INCLINATION":"53.0529","FILE":"3898258","OBJECT_ID":"2021-044AD","SEMIMAJOR_AXIS":"6925.325","MEAN_MOTION_DOT":"0.00008057","TLE_LINE1":"1 48665U 21044AD  23121.41869960  .00008057  00000-0  55908-3 0  9992","PERIOD":"95.592","RA_OF_ASC_NODE":"115.0450","OBJECT_NAME":"STARLINK-2653","MEAN_ELEMENT_THEORY":"SGP4","TLE_LINE2":"2 48665  53.0529 115.0450 0001263  93.4893 266.6241 15.06407617106606","ELEMENT_SET_NO":"999","TIME_SYSTEM":"UTC","SITE":"AFETR","LAUNCH_DATE":"2021-05-26","REV_AT_EPOCH":"10660","BSTAR":"0.00055908000000","DECAY_DATE":null,"RCS_SIZE":"LARGE","ARG_OF_PERICENTER":"93.4893","MEAN_MOTION":"15.06407617","REF_FRAME":"TEME","MEAN_MOTION_DDOT":"0.0000000000000","COUNTRY_CODE":"US"},{"TIME_SYSTEM":"UTC","SITE":"AFETR","LAUNCH_DATE":"2021-05-26","TLE_LINE2":"2 48666  53.0520 115.7559 0001423  87.3645 272.7507 15.06411555106586","ELEMENT_SET_NO":"999","OBJECT_NAME":"STARLINK-2666","MEAN_ELEMENT_THEORY":"SGP4","MEAN_MOTION_DDOT":"0.0000000000000","COUNTRY_CODE":"US","MEAN_MOTION":"15.06411555","REF_FRAME":"TEME","DECAY_DATE":null,"RCS_SIZE":"LARGE","ARG_OF_PERICENTER":"87.3645","BSTAR":"0.00052349000000","REV_AT_EPOCH":"10658","EPOCH":"2023-05-01T08:44:45.435264","APOAPSIS":"548.164","PERIAPSIS":"546.193","MEAN_ANOMALY":"272.7507","OBJECT_TYPE":"PAYLOAD","NORAD_CAT_ID":"48666","CENTER_NAME":"EARTH","ECCENTRICITY":"0.00014230","GP_ID":"231020320","CLASSIFICATION_TYPE":"U","PERIOD":"95.591","RA_OF_ASC_NODE":"115.7559","TLE_LINE1":"1 48666U 21044AE  23121.36441476  .00007527  00000-0  52349-3 0  9992","INCLINATION":"53.0520","FILE":"3898258","MEAN_MOTION_DOT":"0.00007527","SEMIMAJOR_AXIS":"6925.313","OBJECT_ID":"2021-044AE","EPHEMERIS_TYPE":"0"},{"TIME_SYSTEM":"UTC","LAUNCH_DATE":"2021-05-26","SITE":"AFETR","TLE_LINE2":"2 48667  53.0527 114.8208 0001349 104.3836 255.7303 15.06417763107453","ELEMENT_SET_NO":"999","OBJECT_NAME":"STARLINK-2735","MEAN_ELEMENT_THEORY":"SGP4","MEAN_MOTION_DDOT":"0.0000000000000","COUNTRY_CODE":"US","MEAN_MOTION":"15.06417763","REF_FRAME":"TEME","DECAY_DATE":null,"RCS_SIZE":"LARGE","ARG_OF_PERICENTER":"104.3836","BSTAR":"0.00021577000000","REV_AT_EPOCH":"10745","EPOCH":"2023-05-01T11:13:17.266080","APOAPSIS":"548.093","PERIAPSIS":"546.225","NORAD_CAT_ID":"48667","OBJECT_TYPE":"PAYLOAD","MEAN_ANOMALY":"255.7303","CENTER_NAME":"EARTH","ECCENTRICITY":"0.00013490","GP_ID":"230993334","CLASSIFICATION_TYPE":"U","PERIOD":"95.591","RA_OF_ASC_NODE":"114.8208","TLE_LINE1":"1 48667U 21044AF  23121.46756095  .00002935  00000-0  21577-3 0  9997","INCLINATION":"53.0527","FILE":"3898058","SEMIMAJOR_AXIS":"6925.294","OBJECT_ID":"2021-044AF","MEAN_MOTION_DOT":"0.00002935","EPHEMERIS_TYPE":"0"},{"RCS_SIZE":"LARGE","DECAY_DATE":null,"BSTAR":"0.00025533000000","ARG_OF_PERICENTER":"87.5371","REV_AT_EPOCH":"10658","MEAN_MOTION_DDOT":"0.0000000000000","COUNTRY_CODE":"US","MEAN_MOTION":"15.06417602","REF_FRAME":"TEME","OBJECT_NAME":"STARLINK-2738","MEAN_ELEMENT_THEORY":"SGP4","TIME_SYSTEM":"UTC","LAUNCH_DATE":"2021-05-26","SITE":"AFETR","TLE_LINE2":"2 48668  53.0531 115.7337 0001541  87.5371 272.5795 15.06417602106589","ELEMENT_SET_NO":"999","INCLINATION":"53.0531","OBJECT_ID":"2021-044AG","FILE":"3898258","SEMIMAJOR_AXIS":"6925.295","MEAN_MOTION_DOT":"0.00003525","EPHEMERIS_TYPE":"0","PERIOD":"95.591","RA_OF_ASC_NODE":"115.7337","TLE_LINE1":"1 48668U 21044AG  23121.26483791  .00003525  00000-0  25533-3 0  9998","CENTER_NAME":"EARTH","ECCENTRICITY":"0.00015410","GP_ID":"231018818","CLASSIFICATION_TYPE":"U","EPOCH":"2023-05-01T06:21:21.995424","APOAPSIS":"548.227","PERIAPSIS":"546.092","NORAD_CAT_ID":"48668","OBJECT_TYPE":"PAYLOAD","MEAN_ANOMALY":"272.5795"},{"DECAY_DATE":null,"RCS_SIZE":"LARGE","ARG_OF_PERICENTER":"73.4107","BSTAR":"0.00062097000000","REV_AT_EPOCH":"10660","MEAN_MOTION_DDOT":"0.0000000000000","COUNTRY_CODE":"US","MEAN_MOTION":"15.06421118","REF_FRAME":"TEME","OBJECT_NAME":"STARLINK-2707","MEAN_ELEMENT_THEORY":"SGP4","TIME_SYSTEM":"UTC","SITE":"AFETR","LAUNCH_DATE":"2021-05-26","TLE_LINE2":"2 48669  53.0532 114.8576 0001548  73.4107 286.7052 15.06421118106607","ELEMENT_SET_NO":"999","INCLINATION":"53.0532","FILE":"3898258","SEMIMAJOR_AXIS":"6925.284","MEAN_MOTION_DOT":"0.00008985","OBJECT_ID":"2021-044AH","EPHEMERIS_TYPE":"0","PERIOD":"95.591","RA_OF_ASC_NODE":"114.8576","TLE_LINE1":"1 48669U 21044AH  23121.46018908  .00008985  00000-0  62097-3 0  9996","CENTER_NAME":"EARTH","ECCENTRICITY":"0.00015480","GP_ID":"231020070","CLASSIFICATION_TYPE":"U","EPOCH":"2023-05-01T11:02:40.336512","APOAPSIS":"548.221","PERIAPSIS":"546.077","MEAN_ANOMALY":"286.7052","OBJECT_TYPE":"PAYLOAD","NORAD_CAT_ID":"48669"},{"PERIAPSIS":"546.017","OBJECT_TYPE":"PAYLOAD","MEAN_ANOMALY":"276.4637","NORAD_CAT_ID":"48670","APOAPSIS":"548.323","EPOCH":"2023-05-01T10:57:22.045824","CLASSIFICATION_TYPE":"U","ECCENTRICITY":"0.00016650","GP_ID":"231019820","CENTER_NAME":"EARTH","TLE_LINE1":"1 48670U 21044AJ  23121.45650516  .00008899  00000-0  61535-3 0  9994","RA_OF_ASC_NODE":"114.8732","PERIOD":"95.591","EPHEMERIS_TYPE":"0","SEMIMAJOR_AXIS":"6925.305","FILE":"3898258","MEAN_MOTION_DOT":"0.00008899","OBJECT_ID":"2021-044AJ","INCLINATION":"53.0528","ELEMENT_SET_NO":"999","TLE_LINE2":"2 48670  53.0528 114.8732 0001665  83.6542 276.4637 15.06414233106609","SITE":"AFETR","LAUNCH_DATE":"2021-05-26","TIME_SYSTEM":"UTC","OBJECT_NAME":"STARLINK-2763","MEAN_ELEMENT_THEORY":"SGP4","MEAN_MOTION":"15.06414233","REF_FRAME":"TEME","COUNTRY_CODE":"US","MEAN_MOTION_DDOT":"0.0000000000000","REV_AT_EPOCH":"10660","RCS_SIZE":"LARGE","DECAY_DATE":null,"BSTAR":"0.00061535000000","ARG_OF_PERICENTER":"83.6542"},{"APOAPSIS":"548.378","EPOCH":"2023-05-01T09:16:31.275840","PERIAPSIS":"545.918","NORAD_CAT_ID":"48671","OBJECT_TYPE":"PAYLOAD","MEAN_ANOMALY":"281.2890","ECCENTRICITY":"0.00017760","GP_ID":"231019069","CENTER_NAME":"EARTH","CLASSIFICATION_TYPE":"U","RA_OF_ASC_NODE":"115.1852","PERIOD":"95.591","TLE_LINE1":"1 48671U 21044AK  23121.38647310  .00005260  00000-0  37152-3 0  9992","MEAN_MOTION_DOT":"0.00005260","FILE":"3898258","SEMIMAJOR_AXIS":"6925.283","OBJECT_ID":"2021-044AK","INCLINATION":"53.0530","EPHEMERIS_TYPE":"0","SITE":"AFETR","LAUNCH_DATE":"2021-05-26","TIME_SYSTEM":"UTC","ELEMENT_SET_NO":"999","TLE_LINE2":"2 48671  53.0530 115.1852 0001776  78.8298 281.2890 15.06421282106592","OBJECT_NAME":"STARLINK-2745","MEAN_ELEMENT_THEORY":"SGP4","COUNTRY_CODE":"US","MEAN_MOTION_DDOT":"0.0000000000000","MEAN_MOTION":"15.06421282","REF_FRAME":"TEME","DECAY_DATE":null,"RCS_SIZE":"LARGE","BSTAR":"0.00037152000000","ARG_OF_PERICENTER":"78.8298","REV_AT_EPOCH":"10659"},{"REV_AT_EPOCH":"10657","ARG_OF_PERICENTER":"84.5183","DECAY_DATE":null,"RCS_SIZE":"LARGE","BSTAR":"0.00070269000000","MEAN_MOTION":"15.06401034","REF_FRAME":"TEME","MEAN_MOTION_DDOT":"0.0000000000000","COUNTRY_CODE":"US","OBJECT_NAME":"STARLINK-2705","MEAN_ELEMENT_THEORY":"SGP4","TLE_LINE2":"2 48672  53.0530 115.7977 0001819  84.5183 275.6013 15.06401034106577","ELEMENT_SET_NO":"999","TIME_SYSTEM":"UTC","SITE":"AFETR","LAUNCH_DATE":"2021-05-26","EPHEMERIS_TYPE":"0","INCLINATION":"53.0530","SEMIMAJOR_AXIS":"6925.345","FILE":"3898258","MEAN_MOTION_DOT":"0.00010201","OBJECT_ID":"2021-044AL","TLE_LINE1":"1 48672U 21044AL  23121.25009343  .00010201  00000-0  70269-3 0  9994","PERIOD":"95.592","RA_OF_ASC_NODE":"115.7977","CLASSIFICATION_TYPE":"U","CENTER_NAME":"EARTH","ECCENTRICITY":"0.00018190","GP_ID":"231019319","PERIAPSIS":"545.951","OBJECT_TYPE":"PAYLOAD","MEAN_ANOMALY":"275.6013","NORAD_CAT_ID":"48672","EPOCH":"2023-05-01T06:00:08.072352","APOAPSIS":"548.470"}];
